ONEWEB-0528             
1 54643U 22166B   26195.12540412  .00000081  00000+0  16429-3 0  9994
2 54643  87.9238 238.6378 0002183 102.9610 257.1767 13.21826333175102
ONEWEB-0539             
1 54644U 22166C   26195.16324167 -.00000023  00000+0 -88417-4 0  9991
2 54644  87.9241 238.6042 0001852  97.9444 262.1900 13.21823178175104
ONEWEB-0540             
1 54645U 22166D   26195.17011206  .00000048  00000+0  83655-4 0  9994
2 54645  87.9234 238.6315 0002007  92.5753 267.5611 13.21824641175099
ONEWEB-0542             
1 54646U 22166E   26195.17335036  .00000069  00000+0  13615-3 0  9996
2 54646  87.9245 238.6014 0001738  96.1071 264.0261 13.21825617175100
ONEWEB-0545             
1 54647U 22166F   26195.13802683  .00000062  00000+0  11979-3 0  9994
2 54647  87.9239 238.6183 0001633  93.9888 266.1433 13.21826873175060
ONEWEB-0580             
1 54648U 22166G   26195.18846744  .00000026  00000+0  30267-4 0  9998
2 54648  87.9229 238.6083 0001762  88.6419 271.4917 13.21823440175112
ONEWEB-0582             
1 54649U 22166H   26195.15482338 -.00002009  00000+0 -48964-2 0  9997
2 54649  87.9233 238.6068 0001819  95.2600 264.8741 13.21835470175083
ONEWEB-0583             
1 54650U 22166J   26195.16662306  .00000084  00000+0  17174-3 0  9994
2 54650  87.9238 238.6277 0002010  94.2197 265.9167 13.21826050175095
ONEWEB-0584             
1 54651U 22166K   26195.18679605 -.00000031  00000+0 -10547-3 0  9998
2 54651  87.9230 238.6090 0002028  98.1973 261.9391 13.21824965175082
ONEWEB-0585             
1 54652U 22166L   26195.13463860  .00000092  00000+0  19127-3 0  9996
2 54652  87.9238 238.6070 0002255  97.0353 263.1037 13.21824019175082
ONEWEB-0586             
1 54653U 22166M   26195.14810175 -.00000531  00000+0 -13174-2 0  9998
2 54653  87.9234 238.6293 0001927  91.9473 268.1881 13.21827975175083
ONEWEB-0587             
1 54654U 22166N   26195.15821516  .00000049  00000+0  86747-4 0  9991
2 54654  87.9245 238.6039 0002407  99.3622 260.7785 13.21825645175247
ONEWEB-0589             
1 54655U 22166P   26195.06905998  .00000081  00000+0  16442-3 0  9999
2 54655  87.9232 238.6304 0001485  75.5937 284.5361 13.21825795175092
ONEWEB-0590             
1 54656U 22166Q   26195.16983378  .00000063  00000+0  12157-3 0  9998
2 54656  87.9243 238.6034 0002279  85.3792 274.7602 13.21826188175091
ONEWEB-0591             
1 54657U 22166R   26195.18173485  .00000035  00000+0  53703-4 0  9993
2 54657  87.9233 238.6132 0002086  94.9098 265.2274 13.21828147175122
ONEWEB-0592             
1 54658U 22166S   26195.18511104 -.00000166  00000+0 -43453-3 0  9995
2 54658  87.9240 238.5934 0001982  97.9690 262.1669 13.21823620175007
ONEWEB-0593             
1 54659U 22166T   26195.13129079  .00000079  00000+0  15979-3 0  9990
2 54659  87.9237 238.6135 0001921  97.6245 262.5107 13.21826216175100
ONEWEB-0594             
1 54660U 22166U   26195.15147117  .00000196  00000+0  44313-3 0  9991
2 54660  87.9234 238.6259 0002261  98.4710 261.6680 13.21824783175125
ONEWEB-0595             
1 54661U 22166V   26195.12793264 -.00000003  00000+0 -39323-4 0  9994
2 54661  87.9245 238.6136 0002360 101.0872 259.0528 13.21825438175098
ONEWEB-0596             
1 54662U 22166W   26195.17837917  .00000019  00000+0  15090-4 0  9994
2 54662  87.9235 238.6129 0002132  96.3037 263.8339 13.21823576175102
ONEWEB-0597             
1 54663U 22166X   26195.15987678 -.00000033  00000+0 -11217-3 0  9997
2 54663  87.9224 238.6205 0001911 104.1680 255.9666 13.21823595175108
ONEWEB-0600             
1 54664U 22166Y   26195.14139242  .00000122  00000+0  26363-3 0  9998
2 54664  87.9236 238.6140 0001959 100.1821 259.9534 13.21826134175071
ONEWEB-0601             
1 54665U 22166Z   26195.13297097  .00000063  00000+0  12036-3 0  9997
2 54665  87.9236 238.6316 0001793  94.3485 265.7853 13.21825306175263
ONEWEB-0602             
1 54666U 22166AA  26195.17417352 -.00000015  00000+0 -67753-4 0  9996
2 54666  87.9234 238.6296 0001950 103.4589 256.6762 13.21824464175117
ONEWEB-0603             
1 54667U 22166AB  26195.18005806 -.00000078  00000+0 -22031-3 0  9993
2 54667  87.9245 238.5876 0001949  99.3554 260.7800 13.21823789175046
ONEWEB-0604             
1 54668U 22166AC  26195.16828388 -.00000031  00000+0 -10602-3 0  9990
2 54668  87.9251 238.6054 0002125  99.1207 261.0168 13.21823650175007
ONEWEB-0605             
1 54669U 22166AD  26195.16155593  .00000030  00000+0  42210-4 0  9990
2 54669  87.9236 238.6184 0001897  80.3060 279.8288 13.21823731175076
ONEWEB-0606             
1 54670U 22166AE  26195.18342848  .00000058  00000+0  10937-3 0  9995
2 54670  87.9233 238.6267 0002211 101.2754 258.8628 13.21825453175136
ONEWEB-0607             
1 54671U 22166AF  26195.14980162  .00000123  00000+0  26732-3 0  9992
2 54671  87.9240 238.6064 0001958  95.3455 264.7902 13.21826498175106
ONEWEB-0608             
1 54672U 22166AG  26195.15650448  .00000188  00000+0  42299-3 0  9992
2 54672  87.9243 238.6027 0001835  82.0918 278.0424 13.21824951175110
ONEWEB-0610             
1 54673U 22166AH  26195.13634412  .00000087  00000+0  17975-3 0  9995
2 54673  87.9237 238.6177 0001493  90.4512 269.6793 13.21826218175015
