OBJECT_NAME,OBJECT_ID,EPOCH,MEAN_MOTION,ECCENTRICITY,INCLINATION,RA_OF_ASC_NODE,ARG_OF_PERICENTER,MEAN_ANOMALY,EPHEMERIS_TYPE,CLASSIFICATION_TYPE,NORAD_CAT_ID,ELEMENT_SET_NO,REV_AT_EPOCH,BSTAR,MEAN_MOTION_DOT,MEAN_MOTION_DDOT
ONEWEB-0528,2022-166B,2026-07-14T03:00:34.915968,13.21826333,.0002183,87.9238,238.6378,102.9610,257.1767,0,U,54643,999,17510,.16429E-3,.81E-6,0
ONEWEB-0539,2022-166C,2026-07-14T03:55:04.080288,13.21823178,.0001852,87.9241,238.6042,97.9444,262.1900,0,U,54644,999,17510,-.88417E-4,-.23E-6,0
ONEWEB-0540,2022-166D,2026-07-14T04:04:57.681984,13.21824641,.0002007,87.9234,238.6315,92.5753,267.5611,0,U,54645,999,17509,.83655E-4,.48E-6,0
ONEWEB-0542,2022-166E,2026-07-14T04:09:37.471104,13.21825617,.0001738,87.9245,238.6014,96.1071,264.0261,0,U,54646,999,17510,.13615E-3,.69E-6,0
ONEWEB-0545,2022-166F,2026-07-14T03:18:45.518112,13.21826873,.0001633,87.9239,238.6183,93.9888,266.1433,0,U,54647,999,17506,.11979E-3,.62E-6,0
ONEWEB-0580,2022-166G,2026-07-14T04:31:23.586816,13.21823440,.0001762,87.9229,238.6083,88.6419,271.4917,0,U,54648,999,17511,.30267E-4,.26E-6,0
ONEWEB-0582,2022-166H,2026-07-14T03:42:56.740032,13.21835470,.0001819,87.9233,238.6068,95.2600,264.8741,0,U,54649,999,17508,-.48964E-2,-.2009E-4,0
ONEWEB-0583,2022-166J,2026-07-14T03:59:56.232384,13.21826050,.000201,87.9238,238.6277,94.2197,265.9167,0,U,54650,999,17509,.17174E-3,.84E-6,0
ONEWEB-0584,2022-166K,2026-07-14T04:28:59.178720,13.21824965,.0002028,87.9230,238.6090,98.1973,261.9391,0,U,54651,999,17508,-.10547E-3,-.31E-6,0
ONEWEB-0585,2022-166L,2026-07-14T03:13:52.775040,13.21824019,.0002255,87.9238,238.6070,97.0353,263.1037,0,U,54652,999,17508,.19127E-3,.92E-6,0
ONEWEB-0586,2022-166M,2026-07-14T03:33:15.991200,13.21827975,.0001927,87.9234,238.6293,91.9473,268.1881,0,U,54653,999,17508,-.13174E-2,-.531E-5,0
ONEWEB-0587,2022-166N,2026-07-14T03:47:49.789824,13.21825645,.0002407,87.9245,238.6039,99.3622,260.7785,0,U,54654,999,17524,.86747E-4,.49E-6,0
ONEWEB-0589,2022-166P,2026-07-14T01:39:26.782272,13.21825795,.0001485,87.9232,238.6304,75.5937,284.5361,0,U,54655,999,17509,.16442E-3,.81E-6,0
ONEWEB-0590,2022-166Q,2026-07-14T04:04:33.638592,13.21826188,.0002279,87.9243,238.6034,85.3792,274.7602,0,U,54656,999,17509,.12157E-3,.63E-6,0
ONEWEB-0591,2022-166R,2026-07-14T04:21:41.891040,13.21828147,.0002086,87.9233,238.6132,94.9098,265.2274,0,U,54657,999,17512,.53703E-4,.35E-6,0
ONEWEB-0592,2022-166S,2026-07-14T04:26:33.593856,13.21823620,.0001982,87.9240,238.5934,97.9690,262.1669,0,U,54658,999,17500,-.43453E-3,-.166E-5,0
ONEWEB-0593,2022-166T,2026-07-14T03:09:03.524256,13.21826216,.0001921,87.9237,238.6135,97.6245,262.5107,0,U,54659,999,17510,.15979E-3,.79E-6,0
ONEWEB-0594,2022-166U,2026-07-14T03:38:07.109088,13.21824783,.0002261,87.9234,238.6259,98.4710,261.6680,0,U,54660,999,17512,.44313E-3,.196E-5,0
ONEWEB-0595,2022-166V,2026-07-14T03:04:13.380096,13.21825438,.000236,87.9245,238.6136,101.0872,259.0528,0,U,54661,999,17509,-.39323E-4,-.3E-7,0
ONEWEB-0596,2022-166W,2026-07-14T04:16:51.960288,13.21823576,.0002132,87.9235,238.6129,96.3037,263.8339,0,U,54662,999,17510,.1509E-4,.19E-6,0
ONEWEB-0597,2022-166X,2026-07-14T03:50:13.353792,13.21823595,.0001911,87.9224,238.6205,104.1680,255.9666,0,U,54663,999,17510,-.11217E-3,-.33E-6,0
ONEWEB-0600,2022-166Y,2026-07-14T03:23:36.305088,13.21826134,.0001959,87.9236,238.6140,100.1821,259.9534,0,U,54664,999,17507,.26363E-3,.122E-5,0
ONEWEB-0601,2022-166Z,2026-07-14T03:11:28.691808,13.21825306,.0001793,87.9236,238.6316,94.3485,265.7853,0,U,54665,999,17526,.12036E-3,.63E-6,0
ONEWEB-0602,2022-166AA,2026-07-14T04:10:48.592128,13.21824464,.000195,87.9234,238.6296,103.4589,256.6762,0,U,54666,999,17511,-.67753E-4,-.15E-6,0
ONEWEB-0603,2022-166AB,2026-07-14T04:19:17.016384,13.21823789,.0001949,87.9245,238.5876,99.3554,260.7800,0,U,54667,999,17504,-.22031E-3,-.78E-6,0
ONEWEB-0604,2022-166AC,2026-07-14T04:02:19.727232,13.21823650,.0002125,87.9251,238.6054,99.1207,261.0168,0,U,54668,999,17500,-.10602E-3,-.31E-6,0
ONEWEB-0605,2022-166AD,2026-07-14T03:52:38.432352,13.21823731,.0001897,87.9236,238.6184,80.3060,279.8288,0,U,54669,999,17507,.4221E-4,.3E-6,0
ONEWEB-0606,2022-166AE,2026-07-14T04:24:08.220672,13.21825453,.0002211,87.9233,238.6267,101.2754,258.8628,0,U,54670,999,17513,.10937E-3,.58E-6,0
ONEWEB-0607,2022-166AF,2026-07-14T03:35:42.859968,13.21826498,.0001958,87.9240,238.6064,95.3455,264.7902,0,U,54671,999,17510,.26732E-3,.123E-5,0
ONEWEB-0608,2022-166AG,2026-07-14T03:45:21.987072,13.21824951,.0001835,87.9243,238.6027,82.0918,278.0424,0,U,54672,999,17511,.42299E-3,.188E-5,0
ONEWEB-0610,2022-166AH,2026-07-14T03:16:20.131968,13.21826218,.0001493,87.9237,238.6177,90.4512,269.6793,0,U,54673,999,17501,.17975E-3,.87E-6,0
